{
 "generated_at": "2026-07-20T08:05:52Z",
 "sources": [
  {
   "name": "CelesTrak",
   "url": "https://celestrak.org/NORAD/elements/",
   "license": "frei verfügbar; Attribution. Ursprünglich USSPACECOM/Space-Track."
  },
  {
   "name": "GCAT (J. McDowell, planet4589.org)",
   "url": "https://planet4589.org/space/gcat/",
   "license": "CC-BY 4.0"
  }
 ],
 "satellites": [
  {
   "norad": 32376,
   "name": "COSMO-SKYMED 2",
   "intl": "2007-059A",
   "group": "resource",
   "gcat": {
    "class": "D",
    "category": "IMG-R",
    "owner": "ASI",
    "state": "I"
   },
   "omm": {
    "OBJECT_NAME": "COSMO-SKYMED 2",
    "OBJECT_ID": "2007-059A",
    "EPOCH": "2026-07-19T20:04:03.558720",
    "MEAN_MOTION": 14.82152439,
    "ECCENTRICITY": 0.0001451,
    "INCLINATION": 97.8896,
    "RA_OF_ASC_NODE": 23.9621,
    "ARG_OF_PERICENTER": 94.0628,
    "MEAN_ANOMALY": 266.0751,
    "EPHEMERIS_TYPE": 0,
    "CLASSIFICATION_TYPE": "U",
    "NORAD_CAT_ID": 32376,
    "ELEMENT_SET_NO": 999,
    "REV_AT_EPOCH": 684,
    "BSTAR": 0.000025307,
    "MEAN_MOTION_DOT": 0.00000149,
    "MEAN_MOTION_DDOT": 0
   }
  },
  {
   "norad": 33412,
   "name": "COSMO-SKYMED 3",
   "intl": "2008-054A",
   "group": "resource",
   "gcat": {
    "class": null,
    "category": null,
    "owner": null,
    "state": null
   },
   "omm": {
    "OBJECT_NAME": "COSMO-SKYMED 3",
    "OBJECT_ID": "2008-054A",
    "EPOCH": "2026-07-19T21:02:17.777760",
    "MEAN_MOTION": 15.07136109,
    "ECCENTRICITY": 0.0016194,
    "INCLINATION": 97.8248,
    "RA_OF_ASC_NODE": 59.9869,
    "ARG_OF_PERICENTER": 150.6501,
    "MEAN_ANOMALY": 209.5639,
    "EPHEMERIS_TYPE": 0,
    "CLASSIFICATION_TYPE": "U",
    "NORAD_CAT_ID": 33412,
    "ELEMENT_SET_NO": 999,
    "REV_AT_EPOCH": 96186,
    "BSTAR": 0.00015539,
    "MEAN_MOTION_DOT": 0.00002275,
    "MEAN_MOTION_DDOT": 0
   }
  },
  {
   "norad": 37216,
   "name": "COSMO-SKYMED 4",
   "intl": "2010-060A",
   "group": "resource",
   "gcat": {
    "class": "D",
    "category": "IMG-R",
    "owner": "ASI",
    "state": "I"
   },
   "omm": {
    "OBJECT_NAME": "COSMO-SKYMED 4",
    "OBJECT_ID": "2010-060A",
    "EPOCH": "2026-07-19T20:22:18.167232",
    "MEAN_MOTION": 14.82149784,
    "ECCENTRICITY": 0.0001498,
    "INCLINATION": 97.8898,
    "RA_OF_ASC_NODE": 23.9761,
    "ARG_OF_PERICENTER": 84.9706,
    "MEAN_ANOMALY": 275.1678,
    "EPHEMERIS_TYPE": 0,
    "CLASSIFICATION_TYPE": "U",
    "NORAD_CAT_ID": 37216,
    "ELEMENT_SET_NO": 999,
    "REV_AT_EPOCH": 84940,
    "BSTAR": 0.0000042362,
    "MEAN_MOTION_DOT": -1.9e-7,
    "MEAN_MOTION_DDOT": 0
   }
  },
  {
   "norad": 44873,
   "name": "CSG-1",
   "intl": "2019-092A",
   "group": "resource",
   "gcat": {
    "class": "D",
    "category": "IMG-R",
    "owner": "MDDI/ASI",
    "state": "I"
   },
   "omm": {
    "OBJECT_NAME": "CSG-1",
    "OBJECT_ID": "2019-092A",
    "EPOCH": "2026-07-19T20:40:31.694880",
    "MEAN_MOTION": 14.82158753,
    "ECCENTRICITY": 0.0001465,
    "INCLINATION": 97.8899,
    "RA_OF_ASC_NODE": 23.9924,
    "ARG_OF_PERICENTER": 95.0437,
    "MEAN_ANOMALY": 265.0943,
    "EPHEMERIS_TYPE": 0,
    "CLASSIFICATION_TYPE": "U",
    "NORAD_CAT_ID": 44873,
    "ELEMENT_SET_NO": 999,
    "REV_AT_EPOCH": 35631,
    "BSTAR": 0.000020998,
    "MEAN_MOTION_DOT": 0.00000115,
    "MEAN_MOTION_DDOT": 0
   }
  },
  {
   "norad": 51444,
   "name": "CSG-2",
   "intl": "2022-008A",
   "group": "resource",
   "gcat": {
    "class": "D",
    "category": "IMG-R",
    "owner": "MDDI/ASI",
    "state": "I"
   },
   "omm": {
    "OBJECT_NAME": "CSG-2",
    "OBJECT_ID": "2022-008A",
    "EPOCH": "2026-07-19T08:31:21.408096",
    "MEAN_MOTION": 14.82176378,
    "ECCENTRICITY": 0.00016613,
    "INCLINATION": 97.8896,
    "RA_OF_ASC_NODE": 23.4868,
    "ARG_OF_PERICENTER": 89.8481,
    "MEAN_ANOMALY": 270.2922,
    "EPHEMERIS_TYPE": 0,
    "CLASSIFICATION_TYPE": "U",
    "NORAD_CAT_ID": 51444,
    "ELEMENT_SET_NO": 999,
    "REV_AT_EPOCH": 24135,
    "BSTAR": 0.000045603774,
    "MEAN_MOTION_DOT": 0.00000311,
    "MEAN_MOTION_DDOT": 0
   }
  },
  {
   "norad": 67304,
   "name": "CSG-3",
   "intl": "2026-001A",
   "group": "resource",
   "gcat": {
    "class": "D",
    "category": "IMG-R",
    "owner": "MDDI/ASI",
    "state": "I"
   },
   "omm": {
    "OBJECT_NAME": "CSG-3",
    "OBJECT_ID": "2026-001A",
    "EPOCH": "2026-07-19T11:15:29.007936",
    "MEAN_MOTION": 14.82165421,
    "ECCENTRICITY": 0.00015234,
    "INCLINATION": 97.8898,
    "RA_OF_ASC_NODE": 23.6049,
    "ARG_OF_PERICENTER": 94.3856,
    "MEAN_ANOMALY": 265.7531,
    "EPHEMERIS_TYPE": 0,
    "CLASSIFICATION_TYPE": "U",
    "NORAD_CAT_ID": 67304,
    "ELEMENT_SET_NO": 999,
    "REV_AT_EPOCH": 2924,
    "BSTAR": 0.000020919544,
    "MEAN_MOTION_DOT": 0.00000114,
    "MEAN_MOTION_DDOT": 0
   }
  },
  {
   "norad": 41887,
   "name": "CYGFM01",
   "intl": "2016-078D",
   "group": "weather",
   "gcat": {
    "class": "C",
    "category": "EOSCI",
    "owner": "LARCN/SWRIB",
    "state": "US"
   },
   "omm": {
    "OBJECT_NAME": "CYGFM01",
    "OBJECT_ID": "2016-078D",
    "EPOCH": "2026-07-19T20:17:25.470816",
    "MEAN_MOTION": 15.587237,
    "ECCENTRICITY": 0.0005224,
    "INCLINATION": 34.9402,
    "RA_OF_ASC_NODE": 44.8834,
    "ARG_OF_PERICENTER": 80.1375,
    "MEAN_ANOMALY": 279.9939,
    "EPHEMERIS_TYPE": 0,
    "CLASSIFICATION_TYPE": "U",
    "NORAD_CAT_ID": 41887,
    "ELEMENT_SET_NO": 999,
    "REV_AT_EPOCH": 53380,
    "BSTAR": 0.00020641,
    "MEAN_MOTION_DOT": 0.00016426,
    "MEAN_MOTION_DDOT": 0
   }
  },
  {
   "norad": 41886,
   "name": "CYGFM02",
   "intl": "2016-078C",
   "group": "weather",
   "gcat": {
    "class": "C",
    "category": "EOSCI",
    "owner": "LARCN/SWRIB",
    "state": "US"
   },
   "omm": {
    "OBJECT_NAME": "CYGFM02",
    "OBJECT_ID": "2016-078C",
    "EPOCH": "2026-07-19T19:09:47.908224",
    "MEAN_MOTION": 15.66597334,
    "ECCENTRICITY": 0.000497,
    "INCLINATION": 34.9412,
    "RA_OF_ASC_NODE": 3.9203,
    "ARG_OF_PERICENTER": 140.4749,
    "MEAN_ANOMALY": 219.6342,
    "EPHEMERIS_TYPE": 0,
    "CLASSIFICATION_TYPE": "U",
    "NORAD_CAT_ID": 41886,
    "ELEMENT_SET_NO": 999,
    "REV_AT_EPOCH": 53428,
    "BSTAR": 0.00023327,
    "MEAN_MOTION_DOT": 0.0002533,
    "MEAN_MOTION_DDOT": 0
   }
  },
  {
   "norad": 41891,
   "name": "CYGFM03",
   "intl": "2016-078H",
   "group": "weather",
   "gcat": {
    "class": "C",
    "category": "EOSCI",
    "owner": "LARCN/SWRIB",
    "state": "US"
   },
   "omm": {
    "OBJECT_NAME": "CYGFM03",
    "OBJECT_ID": "2016-078H",
    "EPOCH": "2026-07-19T19:15:40.547232",
    "MEAN_MOTION": 15.61730269,
    "ECCENTRICITY": 0.000432,
    "INCLINATION": 34.941,
    "RA_OF_ASC_NODE": 14.0906,
    "ARG_OF_PERICENTER": 120.7282,
    "MEAN_ANOMALY": 239.3869,
    "EPHEMERIS_TYPE": 0,
    "CLASSIFICATION_TYPE": "U",
    "NORAD_CAT_ID": 41891,
    "ELEMENT_SET_NO": 999,
    "REV_AT_EPOCH": 53407,
    "BSTAR": 0.00021776,
    "MEAN_MOTION_DOT": 0.00019463,
    "MEAN_MOTION_DDOT": 0
   }
  },
  {
   "norad": 41885,
   "name": "CYGFM04",
   "intl": "2016-078B",
   "group": "weather",
   "gcat": {
    "class": "C",
    "category": "EOSCI",
    "owner": "LARCN/SWRIB",
    "state": "US"
   },
   "omm": {
    "OBJECT_NAME": "CYGFM04",
    "OBJECT_ID": "2016-078B",
    "EPOCH": "2026-07-19T19:11:48.749856",
    "MEAN_MOTION": 15.63274012,
    "ECCENTRICITY": 0.0004234,
    "INCLINATION": 34.9331,
    "RA_OF_ASC_NODE": 10.3823,
    "ARG_OF_PERICENTER": 139.1895,
    "MEAN_ANOMALY": 220.9148,
    "EPHEMERIS_TYPE": 0,
    "CLASSIFICATION_TYPE": "U",
    "NORAD_CAT_ID": 41885,
    "ELEMENT_SET_NO": 999,
    "REV_AT_EPOCH": 53410,
    "BSTAR": 0.00021124,
    "MEAN_MOTION_DOT": 0.00020059,
    "MEAN_MOTION_DDOT": 0
   }
  }
 ]
}
