COSMO-SKYMED 2          
1 32376U 07059A   26200.83615230  .00000149  00000+0  25307-4 0  9994
2 32376  97.8896  23.9621 0001451  94.0628 266.0751 14.82152439  6847
COSMO-SKYMED 3          
1 33412U 08054A   26200.87659465  .00002275  00000+0  15539-3 0  9991
2 33412  97.8248  59.9869 0016194 150.6501 209.5639 15.07136109961865
COSMO-SKYMED 4          
1 37216U 10060A   26200.84882138 -.00000019  00000+0  42362-5 0  9990
2 37216  97.8898  23.9761 0001498  84.9706 275.1678 14.82149784849403
CYGFM04                 
1 41885U 16078B   26200.79986979  .00020059  00000+0  21124-3 0  9990
2 41885  34.9331  10.3823 0004234 139.1895 220.9148 15.63274012534107
CYGFM02                 
1 41886U 16078C   26200.79847116  .00025330  00000+0  23327-3 0  9994
2 41886  34.9412   3.9203 0004970 140.4749 219.6342 15.66597334534286
CYGFM01                 
1 41887U 16078D   26200.84543369  .00016426  00000+0  20641-3 0  9996
2 41887  34.9402  44.8834 0005224  80.1375 279.9939 15.58723700533805
CYGFM03                 
1 41891U 16078H   26200.80255263  .00019463  00000+0  21776-3 0  9994
2 41891  34.9410  14.0906 0004320 120.7282 239.3869 15.61730269534076
CSG-1                   
1 44873U 19092A   26200.86147795  .00000115  00000+0  20998-4 0  9992
2 44873  97.8899  23.9924 0001465  95.0437 265.0943 14.82158753356312
CSG-2                   
1 51444U 22008A   26200.35510889  .00000311  00000+0  45604-4 0  9996
2 51444  97.8896  23.4868 0001661  89.8481 270.2922 14.82176378241356
CSG-3                   
1 67304U 26001A   26200.46908574  .00000114  00000+0  20920-4 0  9994
2 67304  97.8898  23.6049 0001523  94.3856 265.7531 14.82165421 29241
